296P/Garradd,e,25.3042,263.5178,349.9063,3.487941,0.1513040,0.48028183,193.4210,03/19.0/2024,2000,g 14.0,4.0
# From MPC102956
297P/Beshore,e,10.6392,94.2443,138.9956,3.502969,0.1503313,0.31419184,171.4397,03/19.0/2024,2000,g 15.0,4.0
# From MPC114609
298P/Christensen,e,7.8707,52.8061,100.5939,3.589298,0.1449405,0.38641755,187.0252,03/19.0/2024,2000,g 15.0,4.0
# From MPEC 2024-F34
299P/Catalina-PANSTARRS,e,10.4678,271.5831,323.6930,4.389619,0.1071677,0.28094885,355.4579,03/19.0/2024,2000,g 11.5,4.0
# From MPEC 2023-VM5
300P/Catalina,e,5.6756,95.6172,222.9274,2.697712,0.2224389,0.69176281,76.2723,03/19.0/2024,2000,g 16.0,4.0
# From MPC 89014
301P/LINEAR-NEAT,e,10.3321,351.0800,193.5065,5.746029,0.0715570,0.58579834,251.1087,03/19.0/2024,2000,g 13.0,4.0
# From MPEC 2023-N01
302P/Lemmon-PANSTARRS,e,6.0345,121.7154,208.5994,4.270461,0.1116842,0.22989691,320.3272,03/19.0/2024,2000,g 12.5,4.0
# From MPC 92278
303P/NEAT,e,7.0172,347.9780,357.0028,5.041752,0.0870626,0.51060742,298.8162,03/19.0/2024,2000,g 13.5,4.0
# From MPEC 2022-K19
304P/Ory,e,2.6064,58.9408,335.2589,3.150400,0.1762607,0.60099936,231.5031,03/19.0/2024,2000,g 16.5,4.0
# From MPC101100
305P/Skiff,e,11.6670,240.1475,147.3724,4.636231,0.0987317,0.69399043,335.9968,03/19.0/2024,2000,g 18.0,4.0
# From MPC 92278
306P/LINEAR,e,8.3048,341.3717,0.8916,3.124484,0.1784582,0.59278192,270.6681,03/19.0/2024,2000,g 19.0,4.0
# From MPC 92278
307P/LINEAR,e,4.4366,158.1668,222.1969,5.788207,0.0707763,0.67547308,238.3967,03/19.0/2024,2000,g 15.0,4.0
# From MPEC 2022-C56
308P/Lagerkvist-Carsenty,e,4.8533,63.0962,333.6991,6.599537,0.0581345,0.36469253,187.8658,03/19.0/2024,2000,g 13.0,2.0
# From MPEC 2024-BE0
309P/LINEAR,e,17.0217,10.1431,49.9134,4.376972,0.1076325,0.61851677,358.9237,03/19.0/2024,2000,g 15.0,4.0
# From MPEC 2024-F34
310P/Hill,e,13.1195,8.9007,31.5692,4.185600,0.1150979,0.42266992,16.9797,03/19.0/2024,2000,g 13.5,4.0
# From MPEC 2024-A43
311P/PANSTARRS,e,4.9710,279.1716,144.2434,2.188562,0.3044147,0.11576895,23.4818,03/19.0/2024,2000,g 17.0,4.0
# From MPEC 2021-BE3
312P/NEAT,e,19.7582,144.7002,207.6613,3.471062,0.1524090,0.42718962,193.7185,03/19.0/2024,2000,g 16.0,4.0
# From MPEC 2021-S45
313P/Gibbs,e,10.9807,105.9995,254.8679,3.164196,0.1751092,0.23473539,250.8236,03/19.0/2024,2000,g 15.0,4.0
# From MPC105243
314P/Montani,e,3.9903,267.6153,213.8529,7.252265,0.0504654,0.41776647,137.1193,03/19.0/2024,2000,g  9.5,4.0
# From MPEC 2023-J29
315P/LONEOS,e,17.7322,68.6989,65.8020,4.938871,0.0897972,0.52152757,239.8500,03/19.0/2024,2000,g 11.0,4.0
# From MPC 92279
316P/LONEOS-Christensen,e,9.7945,192.1743,242.9388,4.423486,0.1059393,0.15882069,337.2167,03/19.0/2024,2000,g 13.5,4.0
# From MPEC 2020-C98
317P/WISE,e,11.9669,275.4661,334.8258,2.961263,0.1934144,0.57134899,245.6660,03/19.0/2024,2000,g 17.5,4.0
# From MPC102103
318P/McNaught-Hartley,e,17.8746,35.5633,313.3256,7.509934,0.0478906,0.67431348,146.9008,03/19.0/2024,2000,g  8.5,6.0
# From MPC 97499
319P/Catalina-McNaught,e,15.0941,111.3455,203.6582,3.563660,0.1465074,0.66632694,105.3143,03/19.0/2024,2000,g 15.0,4.0
# From MPC 96281
320P/McNaught,e,4.9035,295.9417,0.7789,3.095041,0.1810108,0.68484571,209.5660,03/19.0/2024,2000,g 20.5,4.0
# From MPC105243
321P/SOHO,e,20.0782,165.0115,172.7501,2.422370,0.2614228,0.98105497,0.0000,10/26.6080/2023,2000,g 20.0,4.0
# From MPC102103
322P/SOHO,e,11.4707,351.4954,56.9218,2.508101,0.2481341,0.97998127,0.0000,08/21.0913/2023,2000,g 19.0,4.0
# From MPEC 2023-XP6
323P/SOHO,e,5.3309,324.2799,353.1301,2.583480,0.2373539,0.98462828,0.0000,03/14.3084/2025,2000,g 20.0,4.0
# From MPEC 2024-F21
323P-B/SOHO,e,5.4677,323.4578,353.9764,2.889000,0.2007164,0.98614841,0.0000,12/16.3256/2025,2000,g 26.0,4.0
# From MPEC 2024-F21
323P-C/SOHO,e,5.3442,324.1980,353.2121,2.610428,0.2336880,0.98477851,0.0000,04/07.1180/2025,2000,g 27.0,4.0
# From MPEC 2021-W31
324P/LaSagra,e,21.3995,270.5771,57.5451,3.095693,0.1809536,0.15321073,189.9129,03/19.0/2024,2000,g 13.0,4.0
# From MPEC 2022-TA0
325P/Yang-Gao,e,16.7962,257.1039,344.6250,3.543196,0.1477785,0.59124732,106.6367,03/19.0/2024,2000,g 14.0,4.0
# From MPEC 2023-XP6
326P/Hill,e,2.4712,99.7870,278.6321,4.070278,0.1200240,0.31953551,9.5624,03/19.0/2024,2000,g 13.5,4.0
# From MPEC 2024-A43
327P/VanNess,e,36.2468,173.9896,185.0362,3.562276,0.1465928,0.56294283,82.6356,03/19.0/2024,2000,g 16.0,4.0
# From MPC109148
328P/LONEOS-Tucker,e,17.6756,341.6511,30.6099,4.188013,0.1149985,0.55266432,344.9376,03/19.0/2024,2000,g 14.5,4.0
# From MPC101101
329P/LINEAR-Catalina,e,21.7133,87.6857,343.5564,5.185345,0.0834714,0.67875272,252.7038,03/19.0/2024,2000,g 13.5,4.0
# From MPEC 2023-J29
330P/Catalina,e,15.7277,293.0794,188.8195,6.618310,0.0578873,0.54980930,159.7953,03/19.0/2024,2000,g 12.0,4.0
# From MPEC 2023-KD6
331P/Gibbs,e,9.7402,216.7518,184.9655,3.004371,0.1892665,0.04148813,238.3775,03/19.0/2024,2000,g 12.0,4.0
# From MPEC 2016-K18
332P/Ikeya-Murakami,e,9.3821,3.7607,152.2909,3.086890,0.1817282,0.48942765,171.5150,03/19.0/2024,2000,g 18.0,4.0
# From MPEC 2016-K18
332P-A/Ikeya-Murakami,e,9.3826,152.3094,3.7424,3.086885,0.1817287,0.48943154,171.5145,03/19.0/2024,2000,g  9.0,4.0
# From MPEC 2016-EI8
332P-B/Ikeya-Murakami,e,9.3805,3.8028,152.3711,3.082329,0.1821317,0.48970701,359.9699,03/17.0/2016,2000,g 19.0,4.0
# From MPEC 2016-K18
332P-C/Ikeya-Murakami,e,9.3817,152.3007,3.7428,3.086851,0.1817317,0.48943710,171.5315,03/19.0/2024,2000,g 16.5,4.0
# From MPEC 2016-ED0
332P-D/Ikeya-Murakami,e,9.3761,3.7923,152.4393,3.081138,0.1822373,0.48977814,359.9486,03/17.0/2016,2000,g 19.0,4.0
# From MPEC 2016-ED0
332P-E/Ikeya-Murakami,e,9.3774,3.8228,152.2825,3.079877,0.1823493,0.48922008,359.9889,03/17.0/2016,2000,g 21.0,4.0
# From MPEC 2016-ED0
332P-F/Ikeya-Murakami,e,9.5293,3.4757,152.8203,3.163214,0.1751908,0.49918860,359.8501,03/17.0/2016,2000,g 21.0,4.0
# From MPEC 2016-ED0
332P-G/Ikeya-Murakami,e,9.2523,3.6955,154.4000,3.050519,0.1849880,0.49200362,359.9006,03/19.0/2016,2000,g 19.0,4.0
# From MPC100285
332P-H/Ikeya-Murakami,e,9.3822,152.3014,3.7425,3.087033,0.1817156,0.48947273,171.4511,03/19.0/2024,2000,g 19.0,4.0
# From MPEC 2016-ED0
332P-I/Ikeya-Murakami,e,9.3791,3.8048,152.3297,3.081767,0.1821815,0.48955490,359.9360,03/17.0/2016,2000,g 20.5,2.0
# From MPEC 2016-EI8
332P-J/Ikeya-Murakami,e,9.4296,3.6729,152.7712,3.115165,0.1792596,0.49429435,359.8613,03/17.0/2016,2000,g 20.5,2.0
# From MPEC 2024-EF7
333P/LINEAR,e,132.0220,115.7011,26.0086,4.220805,0.1136609,0.73629557,330.9826,03/19.0/2024,2000,g 15.0,4.0
# From MPEC 2023-J29
334P/NEAT,e,20.3768,90.4876,90.0409,6.830286,0.0552136,0.35102558,136.9841,03/19.0/2024,2000,g 10.5,4.0
# From MPEC 2023-M14
335P/Gibbs,e,7.2937,330.8201,162.2990,3.577840,0.1456373,0.54646109,85.1863,03/19.0/2024,2000,g 16.8,4.0
# From MPC105244
336P/McNaught,e,17.8250,298.2166,308.6466,5.037762,0.0871661,0.44393377,227.3812,03/19.0/2024,2000,g 13.5,4.0
# From MPEC 2024-A43
337P/WISE,e,15.4678,105.3053,161.9757,3.295163,0.1647740,0.49856318,103.0366,03/19.0/2024,2000,g 17.0,4.0
# From MPEC 2023-J29
338P/McNaught,e,25.3867,9.7932,4.5733,3.891746,0.1283770,0.41212686,342.4150,03/19.0/2024,2000,g 12.0,4.0
# From MPC101101
339P/Gibbs,e,5.7331,27.4768,172.6960,3.700348,0.1384651,0.63565988,27.8407,03/19.0/2024,2000,g 17.0,4.0
# From MPC133426
340P/Boattini,e,2.0784,291.6704,36.0481,4.248978,0.1125324,0.28038880,300.5668,03/19.0/2024,2000,g 14.3,4.0
# From MPEC 2023-J29
341P/Gibbs,e,3.7966,29.9640,312.3257,4.288118,0.1109951,0.41547656,315.6475,03/19.0/2024,2000,g 12.5,4.0
# From MPC101101
342P/SOHO,e,11.6924,73.3162,27.6391,3.041128,0.1858454,0.98290794,0.0000,10/19.3899/2021,2000,g  9.0,4.0
# From MPEC 2023-J29
343P/NEAT-LONEOS,e,5.5960,257.0651,137.5730,5.457475,0.0773066,0.58525241,201.1355,03/19.0/2024,2000,g 14.0,4.0
# From MPEC 2023-J29
344P/Read,e,3.4983,273.1014,140.5442,4.857967,0.0920497,0.42373374,247.4767,03/19.0/2024,2000,g 13.0,4.0
# From MPEC 2022-K19
345P/LINEAR,e,2.7280,154.5951,196.6577,4.031905,0.1217415,0.22127128,339.9234,03/19.0/2024,2000,g 12.0,4.0
# From MPEC 2022-K19
346P/Catalina,e,22.2160,102.4542,336.0087,4.470890,0.1042589,0.50379285,269.7967,03/19.0/2024,2000,g 14.0,4.0
# From MPEC 2023-XP6
347P/PANSTARRS,e,11.7608,260.9875,98.3804,3.607126,0.1438673,0.38685662,34.9783,03/19.0/2024,2000,g 15.0,4.0
# From MPEC 2022-ED3
348P/PANSTARRS,e,17.7373,312.9341,135.7078,3.151939,0.1761316,0.30733631,134.7644,03/19.0/2024,2000,g 14.0,4.0
# From MPEC 2024-EF7
349P/Lemmon,e,5.4884,331.7525,255.7953,3.578403,0.1456029,0.29854669,349.9321,03/19.0/2024,2000,g 14.0,4.0
# From MPC111775
350P/McNaught,e,7.3639,65.2934,139.9141,4.081645,0.1195229,0.09433378,273.0197,03/19.0/2024,2000,g 14.0,4.0
# From MPC105244
351P/Wiegert-PANSTARRS,e,12.7760,352.6825,283.3292,4.440549,0.1053293,0.29480068,320.7671,03/19.0/2024,2000,g 12.5,4.0
# From MPEC 2023-J29
352P/Skiff,e,21.0132,28.0079,309.4049,6.651680,0.0574522,0.61695752,141.4717,03/19.0/2024,2000,g 13.2,4.0
# From MPEC 2020-AA5
353P/McNaught,e,28.4165,121.5337,230.4846,4.170652,0.1157173,0.47003102,263.4616,03/19.0/2024,2000,g 14.5,4.0
# From MPEC 2024-EF7
354P/LINEAR,e,5.2511,320.0720,132.7811,2.289700,0.2844698,0.12448319,44.6984,03/19.0/2024,2000,g 15.5,4.0
# From MPEC 2023-CD7
355P/LINEAR-NEAT,e,11.0472,51.4341,336.3331,3.469399,0.1525186,0.50804877,357.9547,03/19.0/2024,2000,g 15.5,2.0
# From MPEC 2022-F14
356P/WISE,e,9.6401,160.8145,226.1221,4.154714,0.1163838,0.35607171,265.1524,03/19.0/2024,2000,g 14.0,4.0
# From MPC114609
357P/Hill,e,6.3147,44.5808,1.4410,4.456296,0.1047715,0.43612035,221.7999,03/19.0/2024,2000,g 15.5,4.0
# From MPEC 2024-EF7
358P/PANSTARRS,e,11.0634,85.6677,299.6356,3.149837,0.1763080,0.23977733,22.8249,03/19.0/2024,2000,g 18.0,4.0
# From MPC110086
359P/LONEOS,e,10.2642,149.7755,200.2904,4.641133,0.0985753,0.32364037,236.4970,03/19.0/2024,2000,g 13.5,4.0
# From MPC108599
360P/WISE,e,24.1083,2.2143,354.2314,3.697488,0.1386258,0.49918834,332.4510,03/19.0/2024,2000,g 19.5,6.0
# From MPEC 2023-CD7
